HOOPOE                  
1 42718U 98067LZ  17329.55387242  .00029615  00000-0  33213-3 0  9998
2 42718  51.6384 308.5686 0002445 175.3423 184.7594 15.62402341 29048
CHALLENGER              
1 42721U 98067MA  17329.50180649  .00048571  00000-0  49292-3 0  9995
2 42721  51.6399 308.0150 0005411 155.7491 291.2746 15.64701769 28749
NJUST-1                 
1 42722U 98067MB  17329.54800342  .00018854  00000-0  23218-3 0  9990
2 42722  51.6389 310.0296 0005809 175.6852 184.4192 15.60244398 28728
UNSW-ECO                
1 42723U 98067MC  17329.46031673  .00027968  00000-0  31479-3 0  9999
2 42723  51.6392 309.4475 0005229 167.4466 192.6660 15.62331481 28701
DUTHSAT                 
1 42724U 98067MD  17329.19066291  .00039447  00000-0  40921-3 0  9991
2 42724  51.6380 309.8894 0004218 158.1482 201.9693 15.64246701 28599
LILACSAT-1              
1 42725U 98067ME  17329.52844277  .00022246  00000-0  26554-3 0  9992
2 42725  51.6388 309.9017 0004658 172.7614 187.3447 15.60948997 28623
NSIGHT-1                
1 42726U 98067MF  17329.52027516  .00010871  00000-0  14773-3 0  9993
2 42726  51.6398 311.3541 0005414 182.5526 177.5439 15.58162130 28611
SNUSAT-1                
1 42727U 98067MG  17329.52906157  .00023612  00000-0  28242-3 0  9994
2 42727  51.6375 309.8891 0007303 138.2251 221.9301 15.60840395 28597
QBITO                   
1 42728U 98067MH  17329.42437449  .00026521  00000-0  30776-3 0  9994
2 42728  51.6403 309.9716 0002262 158.8624 201.2464 15.61581099 28425
AALTO-2                 
1 42729U 98067MJ  17329.42303505  .00026376  00000-0  30557-3 0  9995
2 42729  51.6390 309.9506 0002223 157.4811 202.6281 15.61627043 28431
SUSAT                   
1 42730U 98067MK  17329.31166342  .00025000  00000-0  29404-3 0  9993
2 42730  51.6386 310.7017 0002423 157.4690 202.6410 15.61265964 28403
I-INSPIRE II            
1 42731U 98067ML  17329.44523222  .00033217  00000-0  36892-3 0  9990
2 42731  51.6375 309.3264 0007120 121.2245 238.9448 15.62568044 28481
POLYITAN-2-SAU          
1 42732U 98067MM  17329.47824714  .00026646  00000-0  30644-3 0  9991
2 42732  51.6382 309.5513 0007034 122.5968 237.5705 15.61789813 28488
SNUSAT-1B               
1 42733U 98067MN  17329.31211935  .00024957  00000-0  29367-3 0  9993
2 42733  51.6384 310.6958 0007066 124.8806 235.2852 15.61233458 28452
EXALTA-1                
1 42734U 98067MP  17329.51462871  .00030605  00000-0  34110-3 0  9992
2 42734  51.6374 309.0422 0007504 146.7329 213.4138 15.62518679 28446
AOXIANG-1               
1 42735U 98067MQ  17329.54049843  .00018677  00000-0  22890-3 0  9993
2 42735  51.6382 309.9738 0006388 173.0050 187.1033 15.60374577 29850
BEEAGLESAT              
1 42736U 98067MR  17329.52382280  .00020287  00000-0  24381-3 0  9994
2 42736  51.6380 309.8617 0006226 170.3555 189.7560 15.60826702 28545
ATLANTIS                
1 42737U 98067MS  17329.16566465  .00073767  00000-0  59922-3 0  9994
2 42737  51.6343 307.4354 0005521 135.7244 224.4196 15.70020297 28430
PROGRESS-MS 06          
1 42756U 17033A   17328.49210150  .00003614  00000-0  61627-4 0  9991
2 42756  51.6410 319.1776 0004401 149.7639 352.1227 15.54219617 86686
ISS DEB (ROSA)          
1 42813U 98067MT  17329.20810588  .00130566  00000-0  92794-3 0  9997
2 42813  51.6346 308.4772 0007125  99.5367 260.6437 15.72938610 23825
SOYUZ-MS 05             
1 42898U 17043A   17328.49210150  .00003614  00000-0  61627-4 0  9999
2 42898  51.6410 319.1776 0004401 149.7639 352.1227 15.54219617 86683
SOYUZ-MS 06             
1 42937U 17054A   17328.49210150  .00003614  00000-0  61627-4 0  9995
2 42937  51.6410 319.1776 0004401 149.7639 352.1227 15.54219617 86687
PROGRESS-MS 07          
1 42971U 17065A   17328.49210150  .00003614  00000-0  61627-4 0  9995
2 42971  51.6410 319.1776 0004401 149.7639 352.1227 15.54219617 86685
KESTREL EYE IIM (KE2M)  
1 42982U 98067NE  17305.65629569  .00008919  00000-0  13962-3 0  9990
2 42982  51.6411  72.9984 0005406  84.5747  14.7663 15.54559432  1274
SIMPL                   
1 42983U 98067NF  17329.44761103  .00005450  00000-0  87543-4 0  9999
2 42983  51.6434 314.3178 0004977 145.2864 351.2920 15.54753467  4503
CYGNUS OA-8             
1 43006U 17071A   17328.49210150  .00003614  00000-0  61627-4 0  9992
2 43006  51.6410 319.1776 0004401 149.7639 352.1227 15.54219617 86685
ECAMSAT                 
1 43019U 98067NG  17329.42931428  .00007600  00000-0  11883-3 0  9999
2 43019  51.6403 314.4868 0005729 127.6805 232.4706 15.54842538 86827
ASTERIA                 
1 43020U 98067NH  17329.42950664  .00016089  00000-0  24335-3 0  9991
2 43020  51.6407 314.4882 0003014 116.6285 243.5015 15.54847375   741
DELLINGR (RBLE)         
1 43021U 98067NJ  17329.42967736  .00010294  00000-0  15875-3 0  9991
2 43021  51.6407 314.4893 0002851 116.3791 243.7492 15.54780808   749
TECHEDSAT 6             
1 43026U 98067NK  17329.42848175  .00060929  00000-0  87376-3 0  9996
2 43026  51.6409 314.4817 0002440  94.8230 265.3040 15.55554232   643
OSIRIS-3U               
1 43027U 98067NL  17329.36464853  .00021422  00000-0  31694-3 0  9994
2 43027  51.6407 314.8062 0004586  95.9483 264.2031 15.55228066   611
